[{"OBJECT_NAME":"ONEWEB-0034","OBJECT_ID":"2020-020AG","EPOCH":"2025-11-17T07:48:57.037824","MEAN_MOTION":13.11418897,"ECCENTRICITY":0.0001654,"INCLINATION":87.8872,"RA_OF_ASC_NODE":63.2427,"ARG_OF_PERICENTER":103.3666,"MEAN_ANOMALY":256.7647,"EPHEMERIS_TYPE":0,"CLASSIFICATION_TYPE":"U","NORAD_CAT_ID":45454,"ELEMENT_SET_NO":999,"REV_AT_EPOCH":27482,"BSTAR":-0.0010431,"MEAN_MOTION_DOT":-3.57e-6,"MEAN_MOTION_DDOT":0},{"OBJECT_NAME":"ONEWEB-0060","OBJECT_ID":"2020-020AH","EPOCH":"2025-11-17T08:57:19.556928","MEAN_MOTION":13.11416216,"ECCENTRICITY":0.0002444,"INCLINATION":87.8857,"RA_OF_ASC_NODE":63.2531,"ARG_OF_PERICENTER":124.5684,"MEAN_ANOMALY":235.5675,"EPHEMERIS_TYPE":0,"CLASSIFICATION_TYPE":"U","NORAD_CAT_ID":45455,"ELEMENT_SET_NO":999,"REV_AT_EPOCH":27478,"BSTAR":0.00018144,"MEAN_MOTION_DOT":7.7e-7,"MEAN_MOTION_DDOT":0},{"OBJECT_NAME":"ONEWEB-0086","OBJECT_ID":"2020-020AJ","EPOCH":"2025-11-17T08:26:49.037280","MEAN_MOTION":13.11415718,"ECCENTRICITY":0.0002412,"INCLINATION":87.8871,"RA_OF_ASC_NODE":63.2343,"ARG_OF_PERICENTER":105.3973,"MEAN_ANOMALY":254.7421,"EPHEMERIS_TYPE":0,"CLASSIFICATION_TYPE":"U","NORAD_CAT_ID":45456,"ELEMENT_SET_NO":999,"REV_AT_EPOCH":27484,"BSTAR":0.0013391,"MEAN_MOTION_DOT":4.87e-6,"MEAN_MOTION_DDOT":0},{"OBJECT_NAME":"ONEWEB-0088","OBJECT_ID":"2020-020AK","EPOCH":"2025-11-17T07:55:02.896032","MEAN_MOTION":13.11417193,"ECCENTRICITY":0.0001538,"INCLINATION":87.8883,"RA_OF_ASC_NODE":63.1911,"ARG_OF_PERICENTER":105.5957,"MEAN_ANOMALY":254.5341,"EPHEMERIS_TYPE":0,"CLASSIFICATION_TYPE":"U","NORAD_CAT_ID":45457,"ELEMENT_SET_NO":999,"REV_AT_EPOCH":27477,"BSTAR":-0.00068144,"MEAN_MOTION_DOT":-2.29e-6,"MEAN_MOTION_DDOT":0},{"OBJECT_NAME":"ONEWEB-0102","OBJECT_ID":"2020-100A","EPOCH":"2025-11-17T12:00:36.492768","MEAN_MOTION":13.12442194,"ECCENTRICITY":0.0001845,"INCLINATION":87.8974,"RA_OF_ASC_NODE":32.7414,"ARG_OF_PERICENTER":97.3206,"MEAN_ANOMALY":262.8133,"EPHEMERIS_TYPE":0,"CLASSIFICATION_TYPE":"U","NORAD_CAT_ID":47258,"ELEMENT_SET_NO":999,"REV_AT_EPOCH":23696,"BSTAR":0.0011966,"MEAN_MOTION_DOT":4.43e-6,"MEAN_MOTION_DDOT":0},{"OBJECT_NAME":"ONEWEB-0109","OBJECT_ID":"2020-100B","EPOCH":"2025-11-17T04:53:09.134016","MEAN_MOTION":13.12441312,"ECCENTRICITY":0.00018239,"INCLINATION":87.8971,"RA_OF_ASC_NODE":32.767,"ARG_OF_PERICENTER":98.5749,"MEAN_ANOMALY":261.5587,"EPHEMERIS_TYPE":0,"CLASSIFICATION_TYPE":"U","NORAD_CAT_ID":47259,"ELEMENT_SET_NO":999,"REV_AT_EPOCH":23675,"BSTAR":0.00076130419,"MEAN_MOTION_DOT":2.87e-6,"MEAN_MOTION_DDOT":0},{"OBJECT_NAME":"ONEWEB-0110","OBJECT_ID":"2020-100C","EPOCH":"2025-11-17T05:30:30.189312","MEAN_MOTION":13.12441819,"ECCENTRICITY":0.0002042,"INCLINATION":87.8973,"RA_OF_ASC_NODE":32.7462,"ARG_OF_PERICENTER":104.0146,"MEAN_ANOMALY":256.1209,"EPHEMERIS_TYPE":0,"CLASSIFICATION_TYPE":"U","NORAD_CAT_ID":47260,"ELEMENT_SET_NO":999,"REV_AT_EPOCH":23692,"BSTAR":-0.0010847452,"MEAN_MOTION_DOT":-3.78e-6,"MEAN_MOTION_DDOT":0},{"OBJECT_NAME":"ONEWEB-0111","OBJECT_ID":"2020-100D","EPOCH":"2025-11-17T11:44:14.906688","MEAN_MOTION":13.12442437,"ECCENTRICITY":0.0001812,"INCLINATION":87.897,"RA_OF_ASC_NODE":32.7119,"ARG_OF_PERICENTER":99.5689,"MEAN_ANOMALY":260.5644,"EPHEMERIS_TYPE":0,"CLASSIFICATION_TYPE":"U","NORAD_CAT_ID":47261,"ELEMENT_SET_NO":999,"REV_AT_EPOCH":23679,"BSTAR":0.00075425,"MEAN_MOTION_DOT":2.84e-6,"MEAN_MOTION_DDOT":0},{"OBJECT_NAME":"ONEWEB-0114","OBJECT_ID":"2020-100E","EPOCH":"2025-11-17T05:09:29.430144","MEAN_MOTION":13.12441574,"ECCENTRICITY":0.00017045,"INCLINATION":87.8973,"RA_OF_ASC_NODE":32.7607,"ARG_OF_PERICENTER":91.7305,"MEAN_ANOMALY":268.4019,"EPHEMERIS_TYPE":0,"CLASSIFICATION_TYPE":"U","NORAD_CAT_ID":47262,"ELEMENT_SET_NO":999,"REV_AT_EPOCH":23671,"BSTAR":-0.00014481261,"MEAN_MOTION_DOT":-3.9e-7,"MEAN_MOTION_DDOT":0},{"OBJECT_NAME":"ONEWEB-0117","OBJECT_ID":"2020-100F","EPOCH":"2025-11-17T10:27:10.345824","MEAN_MOTION":13.12442024,"ECCENTRICITY":0.0001791,"INCLINATION":87.8973,"RA_OF_ASC_NODE":32.715,"ARG_OF_PERICENTER":102.183,"MEAN_ANOMALY":257.9499,"EPHEMERIS_TYPE":0,"CLASSIFICATION_TYPE":"U","NORAD_CAT_ID":47263,"ELEMENT_SET_NO":999,"REV_AT_EPOCH":23675,"BSTAR":0.00093881,"MEAN_MOTION_DOT":3.5e-6,"MEAN_MOTION_DDOT":0},{"OBJECT_NAME":"ONEWEB-0118","OBJECT_ID":"2020-100G","EPOCH":"2025-11-17T05:44:31.798752","MEAN_MOTION":13.12442933,"ECCENTRICITY":0.00014931,"INCLINATION":87.8971,"RA_OF_ASC_NODE":32.7528,"ARG_OF_PERICENTER":95.0149,"MEAN_ANOMALY":265.115,"EPHEMERIS_TYPE":0,"CLASSIFICATION_TYPE":"U","NORAD_CAT_ID":47264,"ELEMENT_SET_NO":999,"REV_AT_EPOCH":23692,"BSTAR":-0.00097067802,"MEAN_MOTION_DOT":-3.36e-6,"MEAN_MOTION_DDOT":0},{"OBJECT_NAME":"ONEWEB-0119","OBJECT_ID":"2020-100H","EPOCH":"2025-11-17T11:53:35.588256","MEAN_MOTION":13.12442437,"ECCENTRICITY":0.0001835,"INCLINATION":87.8974,"RA_OF_ASC_NODE":32.7387,"ARG_OF_PERICENTER":99.1018,"MEAN_ANOMALY":261.0318,"EPHEMERIS_TYPE":0,"CLASSIFICATION_TYPE":"U","NORAD_CAT_ID":47265,"ELEMENT_SET_NO":999,"REV_AT_EPOCH":23693,"BSTAR":0.0013284,"MEAN_MOTION_DOT":4.91e-6,"MEAN_MOTION_DDOT":0},{"OBJECT_NAME":"ONEWEB-0120","OBJECT_ID":"2020-100J","EPOCH":"2025-11-17T05:07:21.454464","MEAN_MOTION":13.12441473,"ECCENTRICITY":0.00017388,"INCLINATION":87.8963,"RA_OF_ASC_NODE":32.7961,"ARG_OF_PERICENTER":97.4711,"MEAN_ANOMALY":262.6615,"EPHEMERIS_TYPE":0,"CLASSIFICATION_TYPE":"U","NORAD_CAT_ID":47266,"ELEMENT_SET_NO":999,"REV_AT_EPOCH":23692,"BSTAR":3.8226987e-5,"MEAN_MOTION_DOT":2.6e-7,"MEAN_MOTION_DDOT":0},{"OBJECT_NAME":"ONEWEB-0121","OBJECT_ID":"2020-100K","EPOCH":"2025-11-17T10:20:09.993408","MEAN_MOTION":13.12442222,"ECCENTRICITY":0.0001937,"INCLINATION":87.8975,"RA_OF_ASC_NODE":32.7196,"ARG_OF_PERICENTER":104.2572,"MEAN_ANOMALY":255.8771,"EPHEMERIS_TYPE":0,"CLASSIFICATION_TYPE":"U","NORAD_CAT_ID":47267,"ELEMENT_SET_NO":999,"REV_AT_EPOCH":23686,"BSTAR":0.0013139,"MEAN_MOTION_DOT":4.85e-6,"MEAN_MOTION_DDOT":0},{"OBJECT_NAME":"ONEWEB-0122","OBJECT_ID":"2020-100L","EPOCH":"2025-11-17T12:02:44.691360","MEAN_MOTION":13.12441729,"ECCENTRICITY":0.0001974,"INCLINATION":87.8974,"RA_OF_ASC_NODE":32.7082,"ARG_OF_PERICENTER":98.5047,"MEAN_ANOMALY":261.6305,"EPHEMERIS_TYPE":0,"CLASSIFICATION_TYPE":"U","NORAD_CAT_ID":47268,"ELEMENT_SET_NO":999,"REV_AT_EPOCH":23678,"BSTAR":0.0011829,"MEAN_MOTION_DOT":4.38e-6,"MEAN_MOTION_DDOT":0},{"OBJECT_NAME":"ONEWEB-0123","OBJECT_ID":"2020-100M","EPOCH":"2025-11-17T11:55:55.635744","MEAN_MOTION":13.12442169,"ECCENTRICITY":0.0001624,"INCLINATION":87.8969,"RA_OF_ASC_NODE":32.7364,"ARG_OF_PERICENTER":101.4265,"MEAN_ANOMALY":258.7046,"EPHEMERIS_TYPE":0,"CLASSIFICATION_TYPE":"U","NORAD_CAT_ID":47269,"ELEMENT_SET_NO":999,"REV_AT_EPOCH":23692,"BSTAR":0.00099088,"MEAN_MOTION_DOT":3.69e-6,"MEAN_MOTION_DDOT":0},{"OBJECT_NAME":"ONEWEB-0124","OBJECT_ID":"2020-100N","EPOCH":"2025-11-17T11:39:34.384896","MEAN_MOTION":13.12443165,"ECCENTRICITY":0.0001776,"INCLINATION":87.8972,"RA_OF_ASC_NODE":32.7427,"ARG_OF_PERICENTER":106.3988,"MEAN_ANOMALY":253.7336,"EPHEMERIS_TYPE":0,"CLASSIFICATION_TYPE":"U","NORAD_CAT_ID":47270,"ELEMENT_SET_NO":999,"REV_AT_EPOCH":23680,"BSTAR":0.00065596,"MEAN_MOTION_DOT":2.49e-6,"MEAN_MOTION_DDOT":0}]
