ONEWEB-0034             
1 45454U 20020AG  25321.32566016 -.00000357  00000+0 -10431-2 0  9995
2 45454  87.8872  63.2427 0001654 103.3666 256.7647 13.11418897274822
ONEWEB-0060             
1 45455U 20020AH  25321.37314302  .00000077  00000+0  18144-3 0  9997
2 45455  87.8857  63.2531 0002444 124.5684 235.5675 13.11416216274789
ONEWEB-0086             
1 45456U 20020AJ  25321.35195645  .00000487  00000+0  13391-2 0  9996
2 45456  87.8871  63.2343 0002412 105.3973 254.7421 13.11415718274845
ONEWEB-0088             
1 45457U 20020AK  25321.32989463 -.00000229  00000+0 -68144-3 0  9996
2 45457  87.8883  63.1911 0001538 105.5957 254.5341 13.11417193274771
ONEWEB-0102             
1 47258U 20100A   25321.50042237  .00000443  00000+0  11966-2 0  9990
2 47258  87.8974  32.7414 0001845  97.3206 262.8133 13.12442194236969
ONEWEB-0109             
1 47259U 20100B   25321.20357794  .00000287  00000+0  76130-3 0  9996
2 47259  87.8971  32.7670 0001823  98.5749 261.5587 13.12441312236759
ONEWEB-0110             
1 47260U 20100C   25321.22951608 -.00000378  00000+0 -10847-2 0  9999
2 47260  87.8973  32.7462 0002042 104.0146 256.1209 13.12441819236922
ONEWEB-0111             
1 47261U 20100D   25321.48906142  .00000284  00000+0  75425-3 0  9999
2 47261  87.8970  32.7119 0001812  99.5689 260.5644 13.12442437236797
ONEWEB-0114             
1 47262U 20100E   25321.21492396 -.00000039  00000+0 -14481-3 0  9997
2 47262  87.8973  32.7607 0001704  91.7305 268.4019 13.12441574236718
ONEWEB-0117             
1 47263U 20100F   25321.43553641  .00000350  00000+0  93881-3 0  9998
2 47263  87.8973  32.7150 0001791 102.1830 257.9499 13.12442024236758
ONEWEB-0118             
1 47264U 20100G   25321.23925693 -.00000336  00000+0 -97068-3 0  9994
2 47264  87.8971  32.7528 0001493  95.0149 265.1150 13.12442933236921
ONEWEB-0119             
1 47265U 20100H   25321.49555079  .00000491  00000+0  13284-2 0  9997
2 47265  87.8974  32.7387 0001835  99.1018 261.0318 13.12442437236939
ONEWEB-0120             
1 47266U 20100J   25321.21344276  .00000026  00000+0  38227-4 0  9993
2 47266  87.8963  32.7961 0001738  97.4711 262.6615 13.12441473236924
ONEWEB-0121             
1 47267U 20100K   25321.43067122  .00000485  00000+0  13139-2 0  9992
2 47267  87.8975  32.7196 0001937 104.2572 255.8771 13.12442222236864
ONEWEB-0122             
1 47268U 20100L   25321.50190615  .00000438  00000+0  11829-2 0  9997
2 47268  87.8974  32.7082 0001974  98.5047 261.6305 13.12441729236781
ONEWEB-0123             
1 47269U 20100M   25321.49717171  .00000369  00000+0  99088-3 0  9995
2 47269  87.8969  32.7364 0001624 101.4265 258.7046 13.12442169236921
ONEWEB-0124             
1 47270U 20100N   25321.48581464  .00000249  00000+0  65596-3 0  9994
2 47270  87.8972  32.7427 0001776 106.3988 253.7336 13.12443165236802
